IRIDIUM 63              
1 25286U 98021B   25186.22023734  .00000269  00000+0  84820-4 0  9990
2 25286  86.3964  74.5669 0002061  89.1672 270.9761 14.36556216426700
IRIDIUM 69              
1 25319U 98026A   25186.17755739  .00000395  00000+0  11698-3 0  9995
2 25319  86.3965  87.8216 0002291  21.6183 338.5113 14.40982041425891
IRIDIUM 71              
1 25320U 98026B   25186.18203511  .00000311  00000+0  90301-4 0  9991
2 25320  86.3962  82.5069 0003773  56.6835 303.4725 14.41169950426434
IRIDIUM 73              
1 25344U 98032C   25186.53455884  .00000390  00000+0  92068-4 0  9994
2 25344  86.4400  39.0221 0001636  78.6795 281.4594 14.51729878433529
IRIDIUM 82              
1 25467U 98051A   25186.43961867  .00019099  00000+0  53808-3 0  9997
2 25467  86.3664 100.7595 0081557 225.5819 133.8738 15.32946517426754
